{"spkid": "50719226", "covariance": {"epoch": "2457327.5", "data": [["1.256595850940683E-16", "-1.366710147958629E-16", "3.689468062945024E-14", "-1.13310637641882E-14", "4.962451583768054E-14", "8.740004770013684E-17"], ["-1.366710147958629E-16", "2.853990941852351E-16", "-5.914597286710648E-14", "2.97254592562629E-14", "-8.924705524511011E-14", "2.337891845445052E-15"], ["3.689468062945024E-14", "-5.914597286710648E-14", "6.900985450485492E-11", "8.971304598414251E-12", "6.513026831745342E-11", "-5.015155019867304E-12"], ["-1.13310637641882E-14", "2.97254592562629E-14", "8.971304598414251E-12", "5.507997478557995E-11", "-4.806941202165875E-11", "1.418295783771493E-11"], ["4.962451583768054E-14", "-8.924705524511011E-14", "6.513026831745342E-11", "-4.806941202165875E-11", "1.213856846849976E-10", "-1.879557043731698E-11"], ["8.740004770013684E-17", "2.337891845445052E-15", "-5.015155019867304E-12", "1.418295783771493E-11", "-1.879557043731698E-11", "1.238825382824824E-11"]], "elements": [{"label": "e", "sigma": 1.12097986196929e-08, "name": "e", "units": null, "value": ".504871858509599", "title": "eccentricity"}, {"label": "q", "units": "au", "value": "1.046733481953922", "title": "perihelion distance", "sigma": 1.68937590306372e-08, "name": "q"}, {"units": "TDB", "title": "time of perihelion passage", "value": "2457212.690035991638", "name": "tp", "sigma": 8.30721701322741e-06, "label": "tp"}, {"label": "node", "sigma": 7.42158842739073e-06, "name": "om", "units": "deg", "title": "longitude of the ascending node", "value": "268.0305141216151"}, {"label": "peri", "sigma": 1.10175171742547e-05, "name": "w", "units": "deg", "title": "argument of perihelion", "value": "16.77675171570047"}, {"label": "i", "sigma": 3.51969513285572e-06, "name": "i", "units": "deg", "title": "inclination", "value": "8.513535853724663"}], "labels": ["e", "q", "tp", "node", "peri", "i"]}, "elements": [{"name": "e", "sigma": "1.1188E-8", "title": "eccentricity", "value": ".5037669893219264", "units": null, "label": "e"}, {"sigma": "3.1976E-8", "name": "a", "units": "au", "value": "2.116637912144568", "title": "semi-major axis", "label": "a"}, {"sigma": "1.6895E-8", "name": "q", "units": "au", "value": "1.050345603658851", "title": "perihelion distance", "label": "q"}, {"label": "i", "value": "8.498909958115654", "title": "inclination; angle with respect to x-y ecliptic plane", "units": "deg", "name": "i", "sigma": "3.5174E-6"}, {"label": "node", "sigma": "7.439E-6", "name": "om", "units": "deg", "value": "267.9639242902156", "title": "longitude of the ascending node"}, {"units": "deg", "title": "argument of perihelion", "value": "16.9310783950435", "name": "w", "sigma": "1.1079E-5", "label": "peri"}, {"units": "deg", "value": "198.4604458770715", "title": "mean anomaly", "sigma": "2.9943E-5", "name": "ma", "label": "M"}, {"units": "TDB", "title": "time of perihelion passage", "value": "2461705.213198626649", "name": "tp", "sigma": ".00010496", "label": "tp"}, {"value": "1124.781806487628", "title": "sidereal orbital period", "units": "d", "name": "per", "sigma": "2.5488E-5", "label": "period"}, {"label": "n", "sigma": "7.2528E-9", "name": "n", "units": "deg/d", "title": "mean motion", "value": ".3200620759720296"}, {"label": "Q", "value": "3.182930220630285", "title": "aphelion distance", "units": "au", "name": "ad", "sigma": "4.8085E-8"}], "epoch": "2461200.5"}